{
    "links": {
        "self": "http://www.neowsapp.com/rest/v1/neo/3819746?api_key=iIulBulltgU6a56xZRHN4H3l9WmuAYTsLGpBGhQ2"
    },
    "id": "3819746",
    "neo_reference_id": "3819746",
    "name": "(2018 JO)",
    "designation": "2018 JO",
    "nasa_jpl_url": "http://ssd.jpl.nasa.gov/sbdb.cgi?sstr=3819746",
    "absolute_magnitude_h": 22.7,
    "estimated_diameter": {
        "kilometers": {
            "estimated_diameter_min": 0.0766575574,
            "estimated_diameter_max": 0.1714115092
        },
        "meters": {
            "estimated_diameter_min": 76.6575573531,
            "estimated_diameter_max": 171.4115092306
        },
        "miles": {
            "estimated_diameter_min": 0.0476327831,
            "estimated_diameter_max": 0.1065101409
        },
        "feet": {
            "estimated_diameter_min": 251.5011804664,
            "estimated_diameter_max": 562.3737359442
        }
    },
    "is_potentially_hazardous_asteroid": false,
    "close_approach_data": [
        {
            "close_approach_date": "2018-05-14",
            "close_approach_date_full": "2018-May-14 20:01",
            "epoch_date_close_approach": 1526328060000,
            "relative_velocity": {
                "kilometers_per_second": "20.0139808261",
                "kilometers_per_hour": "72050.3309740234",
                "miles_per_hour": "44769.2737099425"
            },
            "miss_distance": {
                "astronomical": "0.1499106474",
                "lunar": "58.3152418386",
                "kilometers": "22426313.541361038",
                "miles": "13935065.0570488044"
            },
            "orbiting_body": "Earth"
        }
    ],
    "orbital_data": {
        "orbit_id": "6",
        "orbit_determination_date": "2018-05-13 06:25:17",
        "first_observation_date": "2018-05-06",
        "last_observation_date": "2018-05-13",
        "data_arc_in_days": 7,
        "observations_used": 56,
        "orbit_uncertainty": "9",
        "minimum_orbit_intersection": ".070911",
        "jupiter_tisserand_invariant": "2.877",
        "epoch_osculation": "2458245.5",
        "eccentricity": ".7479179683190003",
        "semi_major_axis": "2.680504039424374",
        "inclination": "10.84451381835375",
        "ascending_node_longitude": "182.9752224955899",
        "orbital_period": "1602.961626735514",
        "perihelion_distance": ".6757069041872228",
        "perihelion_argument": "127.7875384599839",
        "aphelion_distance": "4.685301174661525",
        "perihelion_time": "2458298.612068053679",
        "mean_anomaly": "348.0718638672195",
        "mean_motion": ".2245842907251325",
        "equinox": "J2000",
        "orbit_class": {
            "orbit_class_type": "APO",
            "orbit_class_description": "Near-Earth asteroid orbits which cross the Earth’s orbit similar to that of 1862 Apollo",
            "orbit_class_range": "a (semi-major axis) > 1.0 AU; q (perihelion) < 1.017 AU"
        }
    },
    "is_sentry_object": false
}